STARLINK-2011_new
1 17350C 21005B   21326.12568435  .00003990  00000-0  26730-3 0  3261
2 17350  53.0465 263.2148 0002000  62.3916  14.3747 15.06402733    17
STARLINK-2011_old
1 27350C 21005B   21325.13021257  .00006773  00000-0  45386-3 0  3256
2 27350  53.0463 267.6842 0001928  61.3026  14.0074 15.06385868    12
